STARLINK-31779          
1 59744U 24090Q   26067.38922977  .00000515  00000+0  28248-4 0  9990
2 59744  43.0036 190.6375 0001686 284.6515  75.4150 15.27581796103243
ARCSTONE                
1 64540U 25135N   26068.88991918  .00026427  00000+0  94900-3 0  9995
2 64540  97.4495 185.9194 0004120 166.7863 193.3485 15.28638458 39847
